{
  "norad_id": 66471,
  "name": "STARLINK-35569",
  "history": [
    {
      "epoch": "2026-03-28T15:01:04.439712Z",
      "apogee_km": 483.48076978247445,
      "perigee_km": 482.4738326476281,
      "latitude_deg": -5.0468259058185716e-05,
      "longitude_deg": 137.811248323286,
      "height_km": 482.71511147375367,
      "semi_major_axis_km": 6861.1143012150515,
      "eccentricity": 7.338e-05,
      "inclination_deg": 42.999,
      "raan_deg": 189.1233,
      "arg_perigee_deg": 274.352,
      "mean_anomaly_deg": 85.7247,
      "mean_motion_rev_day": 15.27603977
    }
  ]
}