{"fetched_at":"2026-03-30T06:02:59Z","count":15439,"tles":[{"name":"STARLINK-35569","line1":"1 66471U 25262R   26087.62574583  .00024536  00000+0  89753-3 0  9998","line2":"2 66471  42.9990 189.1233 0000733 274.3520  85.7247 15.27603977 21803","category":"Starlink"}]}